{
    "links": {
        "self": "http://www.neowsapp.com/rest/v1/neo/3435082?api_key=iIulBulltgU6a56xZRHN4H3l9WmuAYTsLGpBGhQ2"
    },
    "id": "3435082",
    "neo_reference_id": "3435082",
    "name": "(2008 UU99)",
    "designation": "2008 UU99",
    "nasa_jpl_url": "http://ssd.jpl.nasa.gov/sbdb.cgi?sstr=3435082",
    "absolute_magnitude_h": 25.1,
    "estimated_diameter": {
        "kilometers": {
            "estimated_diameter_min": 0.0253837029,
            "estimated_diameter_max": 0.0567596853
        },
        "meters": {
            "estimated_diameter_min": 25.3837029364,
            "estimated_diameter_max": 56.7596852866
        },
        "miles": {
            "estimated_diameter_min": 0.0157726969,
            "estimated_diameter_max": 0.0352688224
        },
        "feet": {
            "estimated_diameter_min": 83.279867942,
            "estimated_diameter_max": 186.2194458756
        }
    },
    "is_potentially_hazardous_asteroid": false,
    "close_approach_data": [
        {
            "close_approach_date": "2008-10-27",
            "close_approach_date_full": "2008-Oct-27 01:20",
            "epoch_date_close_approach": 1225070400000,
            "relative_velocity": {
                "kilometers_per_second": "6.0580068734",
                "kilometers_per_hour": "21808.8247440851",
                "miles_per_hour": "13551.1555750122"
            },
            "miss_distance": {
                "astronomical": "0.0886856718",
                "lunar": "34.4987263302",
                "kilometers": "13267187.600799066",
                "miles": "8243848.1028204708"
            },
            "orbiting_body": "Earth"
        }
    ],
    "orbital_data": {
        "orbit_id": "11",
        "orbit_determination_date": "2017-04-06 09:02:21",
        "first_observation_date": "2008-10-30",
        "last_observation_date": "2008-11-27",
        "data_arc_in_days": 28,
        "observations_used": 40,
        "orbit_uncertainty": "7",
        "minimum_orbit_intersection": ".0870822",
        "jupiter_tisserand_invariant": "3.352",
        "epoch_osculation": "2459000.5",
        "eccentricity": ".5383432193793046",
        "semi_major_axis": "2.337705829295346",
        "inclination": "4.27105988997413",
        "ascending_node_longitude": "43.94549581128556",
        "orbital_period": "1305.519059561589",
        "perihelion_distance": "1.079217747190722",
        "perihelion_argument": "350.3964942818919",
        "aphelion_distance": "3.59619391139997",
        "perihelion_time": "2458689.808842464021",
        "mean_anomaly": "85.67382903663835",
        "mean_motion": ".2757523893376883",
        "equinox": "J2000",
        "orbit_class": {
            "orbit_class_type": "AMO",
            "orbit_class_description": "Near-Earth asteroid orbits similar to that of 1221 Amor",
            "orbit_class_range": "1.017 AU < q (perihelion) < 1.3 AU"
        }
    },
    "is_sentry_object": false
}